NORAD_CAT_ID,OBJECT_NAME,OBJECT_TYPE,EPOCH,MEAN_MOTION,ECCENTRICITY,INCLINATION,RA_OF_ASC_NODE,ARG_OF_PERICENTER,MEAN_ANOMALY,BSTAR,MEAN_MOTION_DOT,MEAN_MOTION_DDOT,TLE_LINE0,TLE_LINE1,TLE_LINE2,SEMIMAJOR_AXIS,PERIOD,APOGEE,PERIGEE,DECAYED
51875.0,STARLINK-3585,PAYLOAD,2023-07-11 01:14:44,15.08843341,9.3e-05,53.2178,55.3751,87.1016,273.0083,8.0977e-05,1.001e-05,0.0,0 STARLINK-3585,1 51875U 22022Z   23192.05189954  .00001001  00000-0  80977-4 0  9999,2 51875  53.2178  55.3751 0000930  87.1016 273.0083 15.08843341 76288,6917.87,95.437,540.379,539.092,0.0
51875.0,STARLINK-3585,PAYLOAD,2023-07-11 21:54:45,15.0881996,8.67e-05,53.218,51.5089,84.6367,275.4724,0.000219,3.198e-05,0.0,0 STARLINK-3585,1 51875U 22022Z   23192.91303205  .00003198  00000-0  21900-3 0  9990,2 51875  53.2180  51.5089 0000867  84.6367 275.4724 15.08819960 76416,6917.942,95.439,540.406,539.207,0.0
51875.0,STARLINK-3585,PAYLOAD,2023-07-12 07:27:04,15.08837375,9.86e-05,53.2176,49.7256,90.3405,269.77,1.3317e-05,-7.6e-07,0.0,0 STARLINK-3585,1 51875U 22022Z   23193.31046789 -.00000076  00000-0  13317-4 0  9993,2 51875  53.2176  49.7256 0000986  90.3405 269.7700 15.08837375 76471,6917.888,95.438,540.436,539.071,0.0
51875.0,STARLINK-3585,PAYLOAD,2023-07-12 23:20:55,15.08846898,0.0001028,53.2175,46.7529,96.1039,264.007,3.8759e-05,3.29e-06,0.0,0 STARLINK-3585,1 51875U 22022Z   23193.97286196  .00000329  00000-0  38759-4 0  9990,2 51875  53.2175  46.7529 0001028  96.1039 264.0070 15.08846898 76574,6917.859,95.437,540.435,539.013,0.0
51875.0,STARLINK-3585,PAYLOAD,2023-07-13 23:11:42,15.08840604,0.0001023,53.218,42.2926,86.9069,273.204,4.372e-05,4.08e-06,0.0,0 STARLINK-3585,1 51875U 22022Z   23194.96646796  .00000408  00000-0  43720-4 0  9998,2 51875  53.2180  42.2926 0001023  86.9069 273.2040 15.08840604 76722,6917.879,95.438,540.451,539.036,0.0
51875.0,STARLINK-3585,PAYLOAD,2023-07-14 23:02:28,15.0885361,9.91e-05,53.2185,37.8284,96.3855,263.725,8.4789e-05,1.062e-05,0.0,0 STARLINK-3585,1 51875U 22022Z   23195.96005738  .00001062  00000-0  84789-4 0  9991,2 51875  53.2185  37.8284 0000991  96.3855 263.7250 15.08853610 76879,6917.839,95.437,540.389,539.018,0.0
51875.0,STARLINK-3585,PAYLOAD,2023-07-15 06:59:25,15.08844625,9.99e-05,53.219,36.3428,85.6502,274.4604,2.6254e-05,1.3e-06,0.0,0 STARLINK-3585,1 51875U 22022Z   23196.29126334  .00000130  00000-0  26254-4 0  9992,2 51875  53.2190  36.3428 0000999  85.6502 274.4604 15.08844625 76921,6917.866,95.437,540.422,539.04,0.0
51875.0,STARLINK-3585,PAYLOAD,2023-07-15 16:31:44,15.08839779,0.0001044,53.2187,34.5602,93.6319,266.4793,2.2273e-05,6.7e-07,0.0,0 STARLINK-3585,1 51875U 22022Z   23196.68870832  .00000067  00000-0  22273-4 0  9990,2 51875  53.2187  34.5602 0001044  93.6319 266.4793 15.08839779 76988,6917.881,95.438,540.468,539.024,0.0
51875.0,STARLINK-3585,PAYLOAD,2023-07-16 19:33:18,15.08841257,9.51e-05,53.2187,29.5054,84.2321,275.878,-9.1533e-05,-1.744e-05,0.0,0 STARLINK-3585,1 51875U 22022Z   23197.81479344 -.00001744  00000-0 -91533-4 0  9999,2 51875  53.2187  29.5054 0000951  84.2321 275.8780 15.08841257 77152,6917.877,95.437,540.399,539.084,0.0
51875.0,STARLINK-3585,PAYLOAD,2023-07-17 19:24:04,15.08846076,9.44e-05,53.2182,25.0452,88.8822,271.2278,0.00013284,1.827e-05,0.0,0 STARLINK-3585,1 51875U 22022Z   23198.80838381  .00001827  00000-0  13284-3 0  9995,2 51875  53.2182  25.0452 0000944  88.8822 271.2278 15.08846076 77301,6917.862,95.437,540.38,539.074,0.0
51875.0,STARLINK-3585,PAYLOAD,2023-07-18 11:17:56,15.0884012,0.0001606,53.2183,22.0709,66.2066,293.9095,7.2466e-05,8.65e-06,0.0,0 STARLINK-3585,1 51875U 22022Z   23199.47079258  .00000865  00000-0  72466-4 0  9998,2 51875  53.2183  22.0709 0001606  66.2066 293.9095 15.08840120 77403,6917.88,95.438,540.856,538.634,0.0
51875.0,STARLINK-3585,PAYLOAD,2023-07-19 17:30:16,15.08835424,0.0001039,53.2193,16.4213,101.7544,258.3565,-0.000112,-2.07e-05,0.0,0 STARLINK-3585,1 51875U 22022Z   23200.72936211 -.00002070  00000-0 -11200-3 0  9990,2 51875  53.2193  16.4213 0001039 101.7544 258.3565 15.08835424 77595,6917.894,95.438,540.478,539.041,0.0
51875.0,STARLINK-3585,PAYLOAD,2023-07-20 18:56:26,15.08843327,9.11e-05,53.2187,11.6631,81.9195,278.19,7.4886e-05,9.04e-06,0.0,0 STARLINK-3585,1 51875U 22022Z   23201.78919588  .00000904  00000-0  74886-4 0  9997,2 51875  53.2187  11.6631 0000911  81.9195 278.1900 15.08843327 77750,6917.87,95.437,540.365,539.105,0.0
51875.0,STARLINK-3585,PAYLOAD,2023-07-24 10:22:38,15.08838883,0.0001082,53.2198,355.3035,123.5769,236.5327,5.7923e-05,6.34e-06,0.0,0 STARLINK-3585,1 51875U 22022Z   23205.43239564  .00000634  00000-0  57923-4 0  9995,2 51875  53.2198 355.3035 0001082 123.5769 236.5327 15.08838883 78302,6917.884,95.438,540.497,539.0,0.0
51875.0,STARLINK-3585,PAYLOAD,2023-07-25 10:13:26,15.08838022,0.0001735,53.2141,350.8465,115.1605,244.9567,-2.7162e-06,-3.31e-06,0.0,0 STARLINK-3585,1 51875U 22022Z   23206.42600158 -.00000331  00000-0 -27162-5 0  9995,2 51875  53.2141 350.8465 0001735 115.1605 244.9567 15.08838022 78458,6917.886,95.438,540.952,538.551,0.0
51875.0,STARLINK-3585,PAYLOAD,2023-07-26 10:04:13,15.08876654,9.49e-05,53.2179,346.3887,110.4739,249.6355,-0.00044132,-7.311e-05,0.0,0 STARLINK-3585,1 51875U 22022Z   23207.41959517 -.00007311  00000-0 -44132-3 0  9990,2 51875  53.2179 346.3887 0000949 110.4739 249.6355 15.08876654 78606,6917.768,95.435,540.29,538.977,0.0
51875.0,STARLINK-3585,PAYLOAD,2023-07-27 01:58:04,15.08839861,8.57e-05,53.2181,343.4152,102.2883,257.8205,0.00014252,1.981e-05,0.0,0 STARLINK-3585,1 51875U 22022Z   23208.08199677  .00001981  00000-0  14252-3 0  9992,2 51875  53.2181 343.4152 0000857 102.2883 257.8205 15.08839861 78704,6917.881,95.438,540.339,539.153,0.0
51875.0,STARLINK-3585,PAYLOAD,2023-07-27 09:55:01,15.08831165,0.0001027,53.2192,341.9295,113.7269,246.3831,4.2629e-05,3.91e-06,0.0,0 STARLINK-3585,1 51875U 22022Z   23208.41320623  .00000391  00000-0  42629-4 0  9990,2 51875  53.2192 341.9295 0001027 113.7269 246.3831 15.08831165 78754,6917.907,95.438,540.483,539.062,0.0
51875.0,STARLINK-3585,PAYLOAD,2023-07-27 17:51:56,15.08833903,0.0001156,53.2193,340.4422,111.1004,249.0112,5.4173e-05,5.74e-06,0.0,0 STARLINK-3585,1 51875U 22022Z   23208.74440558  .00000574  00000-0  54173-4 0  9996,2 51875  53.2193 340.4422 0001156 111.1004 249.0112 15.08833903 78803,6917.899,95.438,540.564,538.964,0.0
51875.0,STARLINK-3585,PAYLOAD,2023-07-28 08:10:24,15.08841872,0.0001231,53.2209,337.7661,109.622,250.4905,-3.9838e-05,-9.22e-06,0.0,0 STARLINK-3585,1 51875U 22022Z   23209.34056555 -.00000922  00000-0 -39838-4 0  9993,2 51875  53.2209 337.7661 0001231 109.6220 250.4905 15.08841872 78890,6917.875,95.437,540.591,538.888,0.0
51875.0,STARLINK-3585,PAYLOAD,2023-07-29 15:58:07,15.08834487,0.0001355,53.2188,331.819,98.5003,261.6143,0.00024058,3.542e-05,0.0,0 STARLINK-3585,1 51875U 22022Z   23210.66536445  .00003542  00000-0  24058-3 0  9997,2 51875  53.2188 331.8190 0001355  98.5003 261.6143 15.08834487 79095,6917.897,95.438,540.7,538.825,0.0
51875.0,STARLINK-3585,PAYLOAD,2023-07-30 17:24:17,15.08842528,9.62e-05,53.2182,327.0598,77.1657,282.9443,8.3179e-05,1.036e-05,0.0,0 STARLINK-3585,1 51875U 22022Z   23211.72520426  .00001036  00000-0  83179-4 0  9993,2 51875  53.2182 327.0598 0000962  77.1657 282.9443 15.08842528 79251,6917.873,95.437,540.403,539.072,0.0
51875.0,STARLINK-3585,PAYLOAD,2023-07-31 10:53:31,15.08860427,0.0001561,53.2181,323.7905,75.6443,284.4723,-0.00014634,-2.618e-05,0.0,0 STARLINK-3585,1 51875U 22022Z   23212.45383918 -.00002618  00000-0 -14634-3 0  9995,2 51875  53.2181 323.7905 0001561  75.6443 284.4723 15.08860427 79365,6917.818,95.436,540.763,538.603,0.0
51875.0,STARLINK-3585,PAYLOAD,2023-08-01 17:05:51,15.08840719,8.97e-05,53.2175,318.1378,78.9025,281.2068,1.3352e-05,-7.5e-07,0.0,0 STARLINK-3585,1 51875U 22022Z   23213.71240499 -.00000075  00000-0  13352-4 0  9992,2 51875  53.2175 318.1378 0000897  78.9025 281.2068 15.08840719 79553,6917.878,95.438,540.364,539.123,0.0
51875.0,STARLINK-3585,PAYLOAD,2023-08-02 07:24:20,15.08835618,9.5e-05,53.2174,315.4624,87.8365,272.2735,-1.5203e-05,-5.3e-06,0.0,0 STARLINK-3585,1 51875U 22022Z   23214.30856986 -.00000530  00000-0 -15203-4 0  9996,2 51875  53.2174 315.4624 0000950  87.8365 272.2735 15.08835618 79645,6917.894,95.438,540.416,539.102,0.0
51875.0,STARLINK-3585,PAYLOAD,2023-08-02 13:45:52,15.08845775,9.54e-05,53.2177,314.2726,89.8835,270.2267,2.1522e-05,5.5e-07,0.0,0 STARLINK-3585,1 51875U 22022Z   23214.57352232  .00000055  00000-0  21522-4 0  9991,2 51875  53.2177 314.2726 0000954  89.8835 270.2267 15.08845775 79683,6917.863,95.437,540.388,539.068,0.0
51875.0,STARLINK-3585,PAYLOAD,2023-08-03 10:25:53,15.08840266,0.0001129,53.2185,310.4083,100.6661,259.4458,8.255e-05,1.026e-05,0.0,0 STARLINK-3585,1 51875U 22022Z   23215.43464434  .00001026  00000-0  82550-4 0  9992,2 51875  53.2185 310.4083 0001129 100.6661 259.4458 15.08840266 79816,6917.88,95.438,540.526,538.964,0.0
51875.0,STARLINK-3585,PAYLOAD,2023-08-04 10:16:41,15.0883354,0.0001151,53.218,305.9474,94.7309,265.3814,-3.511e-05,-8.46e-06,0.0,0 STARLINK-3585,1 51875U 22022Z   23216.42825558 -.00000846  00000-0 -35110-4 0  9991,2 51875  53.2180 305.9474 0001151  94.7309 265.3814 15.08833540 79966,6917.9,95.438,540.561,538.969,0.0
51875.0,STARLINK-3585,PAYLOAD,2023-08-05 10:07:27,15.08848555,9.84e-05,53.2172,301.4866,83.7529,276.3575,8.0112e-05,9.88e-06,0.0,0 STARLINK-3585,1 51875U 22022Z   23217.42184354  .00000988  00000-0  80112-4 0  9991,2 51875  53.2172 301.4866 0000984  83.7529 276.3575 15.08848555 80115,6917.854,95.437,540.4,539.039,0.0
51875.0,STARLINK-3585,PAYLOAD,2023-08-05 13:18:12,15.08859718,0.0001061,53.2175,300.8917,84.0435,276.0678,0.00017115,2.439e-05,0.0,0 STARLINK-3585,1 51875U 22022Z   23217.55431433  .00002439  00000-0  17115-3 0  9993,2 51875  53.2175 300.8917 0001061  84.0435 276.0678 15.08859718 80131,6917.82,95.436,540.419,538.951,0.0
